ICEYE-X53               
1 64584U 25135BJ  26188.89154374  .00000407  00000+0  36735-4 0  9997
2 64584  97.7369 305.5840 0001629 163.7846 196.3430 15.00863768 57189
ICEYE-X65               
1 66300U 25248H   26187.95825506  .00002793  00000+0  19511-3 0  9990
2 66300  45.4051  30.2151 0004667 152.2696 207.8436 15.07893453 38503
ICEYE-X66               
1 66301U 25248J   26187.96277053  .00003178  00000+0  21261-3 0  9993
2 66301  45.4020  29.3585 0004305 147.7574 212.3572 15.09141129 38491
ICEYE-X67               
1 66302U 25248K   26187.98735860  .00002603  00000+0  17712-3 0  9999
2 66302  45.4057  28.8035 0005862 148.7145 211.4087 15.09123634 38515
ICEYE-X58               
1 66751U 25276CP  26188.76136944  .00001802  00000+0  93779-4 0  9991
2 66751  97.4206 261.7923 0001678 257.4543 102.6503 15.17299849 33533
ICEYE-X59               
1 66752U 25276CQ  26188.74475852  .00003241  00000+0  26027-3 0  9994
2 66752  97.4367 259.1650 0000371 143.1447 216.9803 15.00708830 33352
ICEYE-X60               
1 66753U 25276CR  26187.72398211  .00003684  00000+0  22322-3 0  9990
2 66753  97.4205 259.8267 0000969 312.9978  47.1171 15.11178480 33315
ICEYE-X61               
1 66754U 25276CS  26188.72001111  .00002024  00000+0  10117-3 0  9998
2 66754  97.4191 261.8276 0001598 257.1566 102.9490 15.18580724 33538
ICEYE-X62               
1 66755U 25276CT  26188.73776508  .00001813  00000+0  11502-3 0  9993
2 66755  97.4193 260.3026 0000886 326.4774  33.6400 15.10114108 33439
ICEYE-X63               
1 67372U 26004K   26188.65454286  .00000801  00000+0  92418-4 0  9998
2 67372  97.8009 186.9744 0005762  70.0683 290.1154 14.88339435 26348
ICEYE-X64               
1 67373U 26004L   26188.23068828  .00001204  00000+0  13715-3 0  9996
2 67373  97.8021 186.4794 0007562  75.0491 285.1563 14.87973564 26271
ICEYE-X71               
1 68494U 26067CG  26188.78884169  .00001546  00000+0  15893-3 0  9992
2 68494  97.7617 146.7082 0001725  12.1855 347.9405 14.91771966 14799
ICEYE-X73               
1 68496U 26067CJ  26188.68519575  .00002149  00000+0  21573-3 0  9991
2 68496  97.7611 146.6858 0000883 161.1396 198.9856 14.92325636 14787
ICEYE-X75               
1 68497U 26067CK  26188.75588672  .00001037  00000+0  10739-3 0  9991
2 68497  97.7602 146.7264 0000801 152.2247 207.9015 14.92163455 14794
ICEYE-X74               
1 68500U 26067CN  26188.78797785  .00001570  00000+0  16131-3 0  9990
2 68500  97.7623 146.7172 0001537   9.3334 350.7913 14.91772322 14798
ICEYE-X76               
1 68502U 26067CQ  26188.78368926  .00000840  00000+0  88981-4 0  9995
2 68502  97.7634 146.7305 0001215 356.1373   3.9836 14.91741186 14794
