{"fetched_at":"2026-07-08T07:03:59.482Z","source":"https://celestrak.org/NORAD/elements/gp.php?NAME=ICEYE&FORMAT=JSON","constellation":"iceye","records":[{"OBJECT_NAME":"ICEYE-X53","OBJECT_ID":"2025-135BJ","EPOCH":"2026-07-07T21:23:49.379136","CLASSIFICATION_TYPE":"U","MEAN_MOTION":15.00863768,"ECCENTRICITY":0.0001629,"INCLINATION":97.7369,"RA_OF_ASC_NODE":305.584,"ARG_OF_PERICENTER":163.7846,"MEAN_ANOMALY":196.343,"EPHEMERIS_TYPE":0,"NORAD_CAT_ID":64584,"ELEMENT_SET_NO":999,"REV_AT_EPOCH":5718,"BSTAR":0.000036735,"MEAN_MOTION_DOT":0.00000407,"MEAN_MOTION_DDOT":0},{"OBJECT_NAME":"ICEYE-X65","OBJECT_ID":"2025-248H","EPOCH":"2026-07-06T22:59:53.237184","CLASSIFICATION_TYPE":"U","MEAN_MOTION":15.07893453,"ECCENTRICITY":0.00046677,"INCLINATION":45.4051,"RA_OF_ASC_NODE":30.2151,"ARG_OF_PERICENTER":152.2696,"MEAN_ANOMALY":207.8436,"EPHEMERIS_TYPE":0,"NORAD_CAT_ID":66300,"ELEMENT_SET_NO":999,"REV_AT_EPOCH":3850,"BSTAR":0.00019511398,"MEAN_MOTION_DOT":0.00002793,"MEAN_MOTION_DDOT":0},{"OBJECT_NAME":"ICEYE-X66","OBJECT_ID":"2025-248J","EPOCH":"2026-07-06T23:06:23.373792","CLASSIFICATION_TYPE":"U","MEAN_MOTION":15.09141129,"ECCENTRICITY":0.00043058,"INCLINATION":45.402,"RA_OF_ASC_NODE":29.3585,"ARG_OF_PERICENTER":147.7574,"MEAN_ANOMALY":212.3572,"EPHEMERIS_TYPE":0,"NORAD_CAT_ID":66301,"ELEMENT_SET_NO":999,"REV_AT_EPOCH":3849,"BSTAR":0.00021261307,"MEAN_MOTION_DOT":0.00003178,"MEAN_MOTION_DDOT":0},{"OBJECT_NAME":"ICEYE-X67","OBJECT_ID":"2025-248K","EPOCH":"2026-07-06T23:41:47.783040","CLASSIFICATION_TYPE":"U","MEAN_MOTION":15.09123634,"ECCENTRICITY":0.00058626,"INCLINATION":45.4057,"RA_OF_ASC_NODE":28.8035,"ARG_OF_PERICENTER":148.7145,"MEAN_ANOMALY":211.4087,"EPHEMERIS_TYPE":0,"NORAD_CAT_ID":66302,"ELEMENT_SET_NO":999,"REV_AT_EPOCH":3851,"BSTAR":0.00017711795,"MEAN_MOTION_DOT":0.00002603,"MEAN_MOTION_DDOT":0},{"OBJECT_NAME":"ICEYE-X58","OBJECT_ID":"2025-276CP","EPOCH":"2026-07-07T18:16:22.319616","CLASSIFICATION_TYPE":"U","MEAN_MOTION":15.17299849,"ECCENTRICITY":0.0001678,"INCLINATION":97.4206,"RA_OF_ASC_NODE":261.7923,"ARG_OF_PERICENTER":257.4543,"MEAN_ANOMALY":102.6503,"EPHEMERIS_TYPE":0,"NORAD_CAT_ID":66751,"ELEMENT_SET_NO":999,"REV_AT_EPOCH":3353,"BSTAR":0.000093779,"MEAN_MOTION_DOT":0.00001802,"MEAN_MOTION_DDOT":0},{"OBJECT_NAME":"ICEYE-X59","OBJECT_ID":"2025-276CQ","EPOCH":"2026-07-07T17:52:27.136128","CLASSIFICATION_TYPE":"U","MEAN_MOTION":15.0070883,"ECCENTRICITY":0.0000371,"INCLINATION":97.4367,"RA_OF_ASC_NODE":259.165,"ARG_OF_PERICENTER":143.1447,"MEAN_ANOMALY":216.9803,"EPHEMERIS_TYPE":0,"NORAD_CAT_ID":66752,"ELEMENT_SET_NO":999,"REV_AT_EPOCH":3335,"BSTAR":0.00026027,"MEAN_MOTION_DOT":0.00003241,"MEAN_MOTION_DDOT":0},{"OBJECT_NAME":"ICEYE-X60","OBJECT_ID":"2025-276CR","EPOCH":"2026-07-06T17:22:32.054304","CLASSIFICATION_TYPE":"U","MEAN_MOTION":15.1117848,"ECCENTRICITY":0.00009692,"INCLINATION":97.4205,"RA_OF_ASC_NODE":259.8267,"ARG_OF_PERICENTER":312.9978,"MEAN_ANOMALY":47.1171,"EPHEMERIS_TYPE":0,"NORAD_CAT_ID":66753,"ELEMENT_SET_NO":999,"REV_AT_EPOCH":3331,"BSTAR":0.00022321541,"MEAN_MOTION_DOT":0.00003684,"MEAN_MOTION_DDOT":0},{"OBJECT_NAME":"ICEYE-X61","OBJECT_ID":"2025-276CS","EPOCH":"2026-07-07T17:16:48.959904","CLASSIFICATION_TYPE":"U","MEAN_MOTION":15.18580724,"ECCENTRICITY":0.0001598,"INCLINATION":97.4191,"RA_OF_ASC_NODE":261.8276,"ARG_OF_PERICENTER":257.1566,"MEAN_ANOMALY":102.949,"EPHEMERIS_TYPE":0,"NORAD_CAT_ID":66754,"ELEMENT_SET_NO":999,"REV_AT_EPOCH":3353,"BSTAR":0.00010117,"MEAN_MOTION_DOT":0.00002024,"MEAN_MOTION_DDOT":0},{"OBJECT_NAME":"ICEYE-X62","OBJECT_ID":"2025-276CT","EPOCH":"2026-07-07T17:42:22.902912","CLASSIFICATION_TYPE":"U","MEAN_MOTION":15.10114108,"ECCENTRICITY":0.0000886,"INCLINATION":97.4193,"RA_OF_ASC_NODE":260.3026,"ARG_OF_PERICENTER":326.4774,"MEAN_ANOMALY":33.64,"EPHEMERIS_TYPE":0,"NORAD_CAT_ID":66755,"ELEMENT_SET_NO":999,"REV_AT_EPOCH":3343,"BSTAR":0.00011502,"MEAN_MOTION_DOT":0.00001813,"MEAN_MOTION_DDOT":0},{"OBJECT_NAME":"ICEYE-X63","OBJECT_ID":"2026-004K","EPOCH":"2026-07-07T15:42:32.503104","CLASSIFICATION_TYPE":"U","MEAN_MOTION":14.88339435,"ECCENTRICITY":0.0005762,"INCLINATION":97.8009,"RA_OF_ASC_NODE":186.9744,"ARG_OF_PERICENTER":70.0683,"MEAN_ANOMALY":290.1154,"EPHEMERIS_TYPE":0,"NORAD_CAT_ID":67372,"ELEMENT_SET_NO":999,"REV_AT_EPOCH":2634,"BSTAR":0.000092418,"MEAN_MOTION_DOT":0.00000801,"MEAN_MOTION_DDOT":0},{"OBJECT_NAME":"ICEYE-X64","OBJECT_ID":"2026-004L","EPOCH":"2026-07-07T05:32:11.467392","CLASSIFICATION_TYPE":"U","MEAN_MOTION":14.87973564,"ECCENTRICITY":0.00075629,"INCLINATION":97.8021,"RA_OF_ASC_NODE":186.4794,"ARG_OF_PERICENTER":75.0491,"MEAN_ANOMALY":285.1563,"EPHEMERIS_TYPE":0,"NORAD_CAT_ID":67373,"ELEMENT_SET_NO":999,"REV_AT_EPOCH":2627,"BSTAR":0.00013715468,"MEAN_MOTION_DOT":0.00001204,"MEAN_MOTION_DDOT":0},{"OBJECT_NAME":"ICEYE-X71","OBJECT_ID":"2026-067CG","EPOCH":"2026-07-07T18:55:55.922016","CLASSIFICATION_TYPE":"U","MEAN_MOTION":14.91771966,"ECCENTRICITY":0.0001725,"INCLINATION":97.7617,"RA_OF_ASC_NODE":146.7082,"ARG_OF_PERICENTER":12.1855,"MEAN_ANOMALY":347.9405,"EPHEMERIS_TYPE":0,"NORAD_CAT_ID":68494,"ELEMENT_SET_NO":999,"REV_AT_EPOCH":1479,"BSTAR":0.00015893,"MEAN_MOTION_DOT":0.00001546,"MEAN_MOTION_DDOT":0},{"OBJECT_NAME":"ICEYE-X73","OBJECT_ID":"2026-067CJ","EPOCH":"2026-07-07T16:26:40.912800","CLASSIFICATION_TYPE":"U","MEAN_MOTION":14.92325636,"ECCENTRICITY":0.0000883,"INCLINATION":97.7611,"RA_OF_ASC_NODE":146.6858,"ARG_OF_PERICENTER":161.1396,"MEAN_ANOMALY":198.9856,"EPHEMERIS_TYPE":0,"NORAD_CAT_ID":68496,"ELEMENT_SET_NO":999,"REV_AT_EPOCH":1478,"BSTAR":0.00021573,"MEAN_MOTION_DOT":0.00002149,"MEAN_MOTION_DDOT":0},{"OBJECT_NAME":"ICEYE-X75","OBJECT_ID":"2026-067CK","EPOCH":"2026-07-07T18:08:28.612608","CLASSIFICATION_TYPE":"U","MEAN_MOTION":14.92163455,"ECCENTRICITY":0.0000801,"INCLINATION":97.7602,"RA_OF_ASC_NODE":146.7264,"ARG_OF_PERICENTER":152.2247,"MEAN_ANOMALY":207.9015,"EPHEMERIS_TYPE":0,"NORAD_CAT_ID":68497,"ELEMENT_SET_NO":999,"REV_AT_EPOCH":1479,"BSTAR":0.00010739,"MEAN_MOTION_DOT":0.00001037,"MEAN_MOTION_DDOT":0},{"OBJECT_NAME":"ICEYE-X74","OBJECT_ID":"2026-067CN","EPOCH":"2026-07-07T18:54:41.286240","CLASSIFICATION_TYPE":"U","MEAN_MOTION":14.91772322,"ECCENTRICITY":0.0001537,"INCLINATION":97.7623,"RA_OF_ASC_NODE":146.7172,"ARG_OF_PERICENTER":9.3334,"MEAN_ANOMALY":350.7913,"EPHEMERIS_TYPE":0,"NORAD_CAT_ID":68500,"ELEMENT_SET_NO":999,"REV_AT_EPOCH":1479,"BSTAR":0.00016131,"MEAN_MOTION_DOT":0.0000157,"MEAN_MOTION_DDOT":0},{"OBJECT_NAME":"ICEYE-X76","OBJECT_ID":"2026-067CQ","EPOCH":"2026-07-07T18:48:30.752064","CLASSIFICATION_TYPE":"U","MEAN_MOTION":14.91741186,"ECCENTRICITY":0.0001215,"INCLINATION":97.7634,"RA_OF_ASC_NODE":146.7305,"ARG_OF_PERICENTER":356.1373,"MEAN_ANOMALY":3.9836,"EPHEMERIS_TYPE":0,"NORAD_CAT_ID":68502,"ELEMENT_SET_NO":999,"REV_AT_EPOCH":1479,"BSTAR":0.000088981,"MEAN_MOTION_DOT":0.0000084,"MEAN_MOTION_DDOT":0}]}
